{
    "links": {
        "self": "http://www.neowsapp.com/rest/v1/neo/54006022?api_key=iIulBulltgU6a56xZRHN4H3l9WmuAYTsLGpBGhQ2"
    },
    "id": "54006022",
    "neo_reference_id": "54006022",
    "name": "(2020 DQ4)",
    "designation": "2020 DQ4",
    "nasa_jpl_url": "http://ssd.jpl.nasa.gov/sbdb.cgi?sstr=54006022",
    "absolute_magnitude_h": 25.851,
    "estimated_diameter": {
        "kilometers": {
            "estimated_diameter_min": 0.0179620118,
            "estimated_diameter_max": 0.0401642793
        },
        "meters": {
            "estimated_diameter_min": 17.9620117689,
            "estimated_diameter_max": 40.1642793278
        },
        "miles": {
            "estimated_diameter_min": 0.0111610732,
            "estimated_diameter_max": 0.0249569184
        },
        "feet": {
            "estimated_diameter_min": 58.9304866918,
            "estimated_diameter_max": 131.7725741899
        }
    },
    "is_potentially_hazardous_asteroid": false,
    "close_approach_data": [
        {
            "close_approach_date": "2002-02-13",
            "close_approach_date_full": "2002-Feb-13 23:06",
            "epoch_date_close_approach": 1013641560000,
            "relative_velocity": {
                "kilometers_per_second": "11.1850431302",
                "kilometers_per_hour": "40266.1552687834",
                "miles_per_hour": "25019.8229779837"
            },
            "miss_distance": {
                "astronomical": "0.3347585344",
                "lunar": "130.2210698816",
                "kilometers": "50079163.710561728",
                "miles": "31117749.3805307264"
            },
            "orbiting_body": "Earth"
        },
        {
            "close_approach_date": "2011-02-18",
            "close_approach_date_full": "2011-Feb-18 01:31",
            "epoch_date_close_approach": 1297992660000,
            "relative_velocity": {
                "kilometers_per_second": "7.5949517551",
                "kilometers_per_hour": "27341.8263184691",
                "miles_per_hour": "16989.147581051"
            },
            "miss_distance": {
                "astronomical": "0.1683137847",
                "lunar": "65.4740622483",
                "kilometers": "25179383.682758589",
                "miles": "15645743.5176989682"
            },
            "orbiting_body": "Earth"
        },
        {
            "close_approach_date": "2020-02-25",
            "close_approach_date_full": "2020-Feb-25 04:47",
            "epoch_date_close_approach": 1582606020000,
            "relative_velocity": {
                "kilometers_per_second": "5.8498936262",
                "kilometers_per_hour": "21059.6170543728",
                "miles_per_hour": "13085.6270524796"
            },
            "miss_distance": {
                "astronomical": "0.0858959776",
                "lunar": "33.4135352864",
                "kilometers": "12849855.290527712",
                "miles": "7984529.8299659456"
            },
            "orbiting_body": "Earth"
        },
        {
            "close_approach_date": "2024-08-08",
            "close_approach_date_full": "2024-Aug-08 16:32",
            "epoch_date_close_approach": 1723134720000,
            "relative_velocity": {
                "kilometers_per_second": "6.6110426547",
                "kilometers_per_hour": "23799.7535570822",
                "miles_per_hour": "14788.2413143992"
            },
            "miss_distance": {
                "astronomical": "0.3170237981",
                "lunar": "123.3222574609",
                "kilometers": "47426084.935070047",
                "miles": "29469202.6735667686"
            },
            "orbiting_body": "Earth"
        }
    ],
    "orbital_data": {
        "orbit_id": "3",
        "orbit_determination_date": "2020-03-05 05:06:01",
        "first_observation_date": "2020-02-27",
        "last_observation_date": "2020-03-05",
        "data_arc_in_days": 7,
        "observations_used": 32,
        "orbit_uncertainty": "7",
        "minimum_orbit_intersection": ".0854075",
        "jupiter_tisserand_invariant": "5.339",
        "epoch_osculation": "2459000.5",
        "eccentricity": ".1165620155350955",
        "semi_major_axis": "1.180037697950924",
        "inclination": "10.85468808089954",
        "ascending_node_longitude": "163.0469932487085",
        "orbital_period": "468.2116864453629",
        "perihelion_distance": "1.04249012547037",
        "perihelion_argument": "310.3146563877798",
        "aphelion_distance": "1.317585270431478",
        "perihelion_time": "2458860.263034440795",
        "mean_anomaly": "107.8258169602629",
        "mean_motion": ".7688829869521198",
        "equinox": "J2000",
        "orbit_class": {
            "orbit_class_type": "AMO",
            "orbit_class_description": "Near-Earth asteroid orbits similar to that of 1221 Amor",
            "orbit_class_range": "1.017 AU < q (perihelion) < 1.3 AU"
        }
    },
    "is_sentry_object": false
}